OBJECT_NAME,OBJECT_ID,EPOCH,MEAN_MOTION,ECCENTRICITY,INCLINATION,RA_OF_ASC_NODE,ARG_OF_PERICENTER,MEAN_ANOMALY,EPHEMERIS_TYPE,CLASSIFICATION_TYPE,NORAD_CAT_ID,ELEMENT_SET_NO,REV_AT_EPOCH,BSTAR,MEAN_MOTION_DOT,MEAN_MOTION_DDOT
STARLINK-35509,2025-243Y,2026-07-23T17:27:06.447744,15.30215273,.0001666,53.1609,333.2324,253.0229,107.0589,0,U,66199,999,4148,.49561E-3,.14355E-3,0
STARLINK-35551,2025-243Z,2026-07-23T17:31:41.397600,15.30206273,.0003143,53.1674,333.2440,60.8915,299.2400,0,U,66200,999,4148,.93571E-3,.27463E-3,0
STARLINK-35543,2025-243AA,2026-07-23T17:26:21.435072,15.31707185,.0001341,53.1588,332.5205,95.0627,265.0528,0,U,66201,999,4149,.94342E-3,.29031E-3,0
STARLINK-35534,2025-243AB,2026-07-23T17:40:46.668000,15.30226207,.0001531,53.1599,333.2917,85.0173,275.1003,0,U,66202,999,4148,.81801E-3,.23966E-3,0
STARLINK-35548,2025-243AC,2026-07-23T16:11:17.842848,15.30204397,.000074,53.1621,333.6140,127.0825,233.0243,0,U,66203,999,4147,.69349E-3,.20239E-3,0
STARLINK-35490,2025-243AD,2026-07-23T17:26:59.297280,15.34391280,.0001023,53.1569,332.5291,126.0965,234.0132,0,U,66204,999,4149,.60772E-3,.20206E-3,0
STARLINK-35748,2025-244A,2026-07-23T14:08:34.014048,15.34385882,.0000281,53.1625,316.7447,35.7580,324.3441,0,U,66206,999,4249,.7616E-3,.25432E-3,0
STARLINK-35747,2025-244B,2026-07-23T16:33:51.336000,15.34390762,.0000804,53.1612,316.6113,72.7517,287.3574,0,U,66207,999,4250,.15774E-2,.53283E-3,0
STARLINK-35751,2025-244C,2026-07-23T07:02:00.022848,15.34399512,.000272,53.1582,318.4514,93.3263,266.8050,0,U,66208,999,4244,.87315E-3,.2924E-3,0
STARLINK-35750,2025-244D,2026-07-23T17:37:22.052928,15.34384454,.0001448,53.1625,316.2289,72.7981,287.3180,0,U,66209,999,4251,.80584E-3,.26935E-3,0
STARLINK-35740,2025-244E,2026-07-23T17:19:10.954848,15.34404962,.0001238,53.1586,316.1454,92.7409,267.3735,0,U,66210,999,4251,.95235E-3,.31942E-3,0
STARLINK-35723,2025-244F,2026-07-23T17:46:27.185952,15.34419999,.000054,53.1634,316.2642,21.1641,338.9384,0,U,66211,999,4250,.14108E-2,.47623E-3,0
STARLINK-35710,2025-244G,2026-07-23T17:27:04.522752,15.30199798,.0001528,53.1580,318.3037,117.4165,242.6991,0,U,66212,999,4248,.92402E-3,.27107E-3,0
STARLINK-34204,2025-244H,2026-07-23T17:01:08.177088,15.34397630,.0001186,53.1589,316.7759,88.7333,271.3806,0,U,66213,999,4250,.88793E-3,.29741E-3,0
STARLINK-35714,2025-244J,2026-07-23T17:04:51.960864,15.34395857,.0001166,53.1606,318.2083,99.4717,260.6418,0,U,66214,999,4248,.10618E-2,.35663E-3,0
STARLINK-35712,2025-244K,2026-07-23T15:30:22.599360,15.34385987,.0001289,53.1599,317.0921,70.0524,290.0617,0,U,66215,999,4249,.11149E-2,.37463E-3,0
STARLINK-35709,2025-244L,2026-07-23T17:11:52.867968,15.30204447,.0001179,53.1610,318.2382,80.2380,279.8754,0,U,66216,999,4248,.48498E-3,.14034E-3,0
STARLINK-35700,2025-244M,2026-07-23T07:38:26.384352,15.30203087,.0002473,53.1566,320.0179,94.2864,265.8420,0,U,66217,999,4241,.90449E-3,.26528E-3,0
STARLINK-35722,2025-244N,2026-07-23T14:23:43.221120,15.34390320,.0001089,53.1596,316.8024,86.9253,273.1875,0,U,66218,999,4249,.6989E-3,.23303E-3,0
STARLINK-35737,2025-244P,2026-07-23T14:41:54.187008,15.34415337,.0001359,53.1550,316.8841,85.8088,274.3070,0,U,66219,999,4249,.76806E-3,.25676E-3,0
STARLINK-35677,2025-244Q,2026-07-23T14:20:40.644096,15.34417766,.0000484,53.1577,316.7929,86.3408,273.7650,0,U,66220,999,4249,.68709E-3,.22923E-3,0
STARLINK-35704,2025-244R,2026-07-23T16:59:43.075680,15.30201743,.0000375,53.1609,318.1821,89.7008,270.4036,0,U,66221,999,4248,.88373E-3,.25907E-3,0
STARLINK-35666,2025-244S,2026-07-23T18:37:57.135072,15.31311403,.000135,53.1606,317.8961,81.9916,278.1238,0,U,66222,999,4249,.22969E-1,.757814E-2,0
STARLINK-35664,2025-244T,2026-07-21T18:11:47.713632,15.30222458,.0000617,53.1594,327.3432,86.7794,273.3277,0,U,66223,999,4218,.69762492E-3,.20374E-3,0
STARLINK-35733,2025-244U,2026-07-23T20:00:01.999008,15.34324336,.0001242,53.1597,317.7751,18.5724,224.0808,0,U,66224,999,585,.22569E-2,.76471E-3,0
STARLINK-35734,2025-244V,2026-07-23T17:08:51.349344,15.30251782,.0001578,53.1605,318.2205,93.0723,267.0458,0,U,66225,999,4248,.93873E-3,.27591E-3,0
STARLINK-34466,2025-244W,2026-07-23T17:34:20.059968,15.34409023,.0000142,53.1575,316.2083,87.4135,272.6884,0,U,66226,999,4251,.73599E-3,.24579E-3,0
STARLINK-34882,2025-244X,2026-07-23T08:00:01.999008,15.34366862,.0001164,53.1594,318.2050,123.3297,122.7656,0,U,66227,999,589,.12882E-2,.43352E-3,0
STARLINK-35731,2025-244Y,2026-07-23T17:22:12.544320,15.34413534,.0000798,53.1573,316.1561,50.8472,309.2601,0,U,66228,999,4251,.85464E-3,.28622E-3,0
STARLINK-35758,2025-244Z,2026-07-23T14:32:48.016320,15.34390018,.0000941,53.1584,316.8390,49.5537,310.5547,0,U,66229,999,4249,.86395E-3,.28917E-3,0
