STARLINK-35509          
1 66199U 25243Y   26204.72715796  .00014355  00000+0  49561-3 0  9990
2 66199  53.1609 333.2324 0001666 253.0229 107.0589 15.30215273 41485
STARLINK-35551          
1 66200U 25243Z   26204.73034025  .00027463  00000+0  93571-3 0  9997
2 66200  53.1674 333.2440 0003143  60.8915 299.2400 15.30206273 41483
STARLINK-35543          
1 66201U 25243AA  26204.72663698  .00029031  00000+0  94342-3 0  9991
2 66201  53.1588 332.5205 0001341  95.0627 265.0528 15.31707185 41499
STARLINK-35534          
1 66202U 25243AB  26204.73665125  .00023966  00000+0  81801-3 0  9997
2 66202  53.1599 333.2917 0001531  85.0173 275.1003 15.30226207 41485
STARLINK-35548          
1 66203U 25243AC  26204.67451207  .00020239  00000+0  69349-3 0  9998
2 66203  53.1621 333.6140 0000740 127.0825 233.0243 15.30204397 41470
STARLINK-35490          
1 66204U 25243AD  26204.72707520  .00020206  00000+0  60772-3 0  9992
2 66204  53.1569 332.5291 0001023 126.0965 234.0132 15.34391280 41498
STARLINK-35748          
1 66206U 25244A   26204.58928257  .00025432  00000+0  76160-3 0  9995
2 66206  53.1625 316.7447 0000281  35.7580 324.3441 15.34385882 42492
STARLINK-35747          
1 66207U 25244B   26204.69017750  .00053283  00000+0  15774-2 0  9993
2 66207  53.1612 316.6113 0000804  72.7517 287.3574 15.34390762 42500
STARLINK-35751          
1 66208U 25244C   26204.29305582  .00029240  00000+0  87315-3 0  9990
2 66208  53.1582 318.4514 0002720  93.3263 266.8050 15.34399512 42444
STARLINK-35750          
1 66209U 25244D   26204.73428302  .00026935  00000+0  80584-3 0  9995
2 66209  53.1625 316.2289 0001448  72.7981 287.3180 15.34384454 42511
STARLINK-35740          
1 66210U 25244E   26204.72165457  .00031942  00000+0  95235-3 0  9998
2 66210  53.1586 316.1454 0001238  92.7409 267.3735 15.34404962 42517
STARLINK-35723          
1 66211U 25244F   26204.74059243  .00047623  00000+0  14108-2 0  9998
2 66211  53.1634 316.2642 0000540  21.1641 338.9384 15.34419999 42501
STARLINK-35710          
1 66212U 25244G   26204.72713568  .00027107  00000+0  92402-3 0  9993
2 66212  53.1580 318.3037 0001528 117.4165 242.6991 15.30199798 42480
STARLINK-34204          
1 66213U 25244H   26204.70912242  .00029741  00000+0  88793-3 0  9996
2 66213  53.1589 316.7759 0001186  88.7333 271.3806 15.34397630 42506
STARLINK-35714          
1 66214U 25244J   26204.71171251  .00035663  00000+0  10618-2 0  9995
2 66214  53.1606 318.2083 0001166  99.4717 260.6418 15.34395857 42483
STARLINK-35712          
1 66215U 25244K   26204.64609490  .00037463  00000+0  11149-2 0  9999
2 66215  53.1599 317.0921 0001289  70.0524 290.0617 15.34385987 42492
STARLINK-35709          
1 66216U 25244L   26204.71658412  .00014034  00000+0  48498-3 0  9993
2 66216  53.1610 318.2382 0001179  80.2380 279.8754 15.30204447 42485
STARLINK-35700          
1 66217U 25244M   26204.31836093  .00026528  00000+0  90449-3 0  9997
2 66217  53.1566 320.0179 0002473  94.2864 265.8420 15.30203087 42418
STARLINK-35722          
1 66218U 25244N   26204.59980580  .00023303  00000+0  69890-3 0  9993
2 66218  53.1596 316.8024 0001089  86.9253 273.1875 15.34390320 42491
STARLINK-35737          
1 66219U 25244P   26204.61243272  .00025676  00000+0  76806-3 0  9997
2 66219  53.1550 316.8841 0001359  85.8088 274.3070 15.34415337 42499
STARLINK-35677          
1 66220U 25244Q   26204.59769264  .00022923  00000+0  68709-3 0  9995
2 66220  53.1577 316.7929 0000484  86.3408 273.7650 15.34417766 42491
STARLINK-35704          
1 66221U 25244R   26204.70813745  .00025907  00000+0  88373-3 0  9997
2 66221  53.1609 318.1821 0000375  89.7008 270.4036 15.30201743 42480
STARLINK-35666          
1 66222U 25244S   26204.77635573  .00757814  00000+0  22969-1 0  9992
2 66222  53.1606 317.8961 0001350  81.9916 278.1238 15.31311403 42491
STARLINK-35664          
1 66223U 25244T   26202.75819113  .00020374  00000+0  69762-3 0  9991
2 66223  53.1594 327.3432 0000617  86.7794 273.3277 15.30222458 42185
STARLINK-35733          
1 66224U 25244U   26204.83335647  .00076471  00000+0  22569-2 0  9990
2 66224  53.1597 317.7751 0001242  18.5724 224.0808 15.34324336  5855
STARLINK-35734          
1 66225U 25244V   26204.71448321  .00027591  00000+0  93873-3 0  9998
2 66225  53.1605 318.2205 0001578  93.0723 267.0458 15.30251782 42483
STARLINK-34466          
1 66226U 25244W   26204.73217662  .00024579  00000+0  73599-3 0  9999
2 66226  53.1575 316.2083 0000142  87.4135 272.6884 15.34409023 42518
STARLINK-34882          
1 66227U 25244X   26204.33335647  .00043352  00000+0  12882-2 0  9997
2 66227  53.1594 318.2050 0001164 123.3297 122.7656 15.34366862  5895
STARLINK-35731          
1 66228U 25244Y   26204.72375630  .00028622  00000+0  85464-3 0  9997
2 66228  53.1573 316.1561 0000798  50.8472 309.2601 15.34413534 42519
STARLINK-35758          
1 66229U 25244Z   26204.60611130  .00028917  00000+0  86395-3 0  9994
2 66229  53.1584 316.8390 0000941  49.5537 310.5547 15.34390018 42498
